satname,norad_id,inclination_deg,eccentricity,mean_motion_rev_per_day,perigee_km,apogee_km,l1,l2
STARLINK-1153,45080,53.0581,0.0001528,15.06408835,546.1262909459401,548.2426691902474,1 45080U 20006AN  25317.60890263  .00002130  00000+0  16184-3 0  9995,2 45080  53.0581  67.7254 0001528 109.2807 250.8347 15.06408835319243
STARLINK-1151,45081,53.0552,0.0001151,15.06367798,546.5131352095577,548.1073731674724,1 45081U 20006AP  25317.72688537 -.00008026  00000+0 -52098-3 0  9994,2 45081  53.0552  67.2698 0001151 104.9132 255.1984 15.06367798319263
STARLINK-1190,45083,53.0354,0.0005137,16.01454082,266.9758351313476,273.806532987649,1 45083U 20006AR  25317.74705584  .00752543  27712-3  13240-2 0  9996,2 45083  53.0354   9.3517 0005137 356.1274   3.9715 16.01454082320079
STARLINK-1185,45087,53.0553,0.00012,15.06373505,546.4617109160081,548.123814059004,1 45087U 20006AV  25317.43753803 -.00003570  00000+0 -22104-3 0  9991,2 45087  53.0553  48.4920 0001200  63.8248 296.2865 15.06373505319509
STARLINK-1183,45088,53.0546,0.0001087,15.06398531,546.4632743377169,547.9688460930065,1 45088U 20006AW  25317.65867110  .00010875  00000+0  74789-3 0  9993,2 45088  53.0546  47.5012 0001087  53.1459 306.9630 15.06398531319531
STARLINK-1142,45093,53.0322,0.0007741,15.67229219,361.61387574025866,372.0564416363404,1 45093U 20006BB  25317.91670139  .00384485  00000+0  33542-2 0  9993,2 45093  53.0322 334.0818 0007741  46.2930 165.1774 15.67229219  5996
STARLINK-1152,45096,53.046,0.0004124,15.2541508,486.70708130174535,492.3715407230693,1 45096U 20006BE  25317.63573039  .00020679  00000+0  81875-3 0  9991,2 45096  53.0460  28.1190 0004124 234.0958 125.9657 15.25415080319804
STARLINK-1184,45098,53.0563,0.0001562,15.06389556,546.1618230343629,548.3253119236433,1 45098U 20006BG  25317.73976093 -.00005498  00000+0 -35055-3 0  9994,2 45098  53.0563  47.1351 0001562 119.4807 240.6338 15.06389556319541
STARLINK-1193,45100,53.0563,0.000175,15.06377256,546.0693177030653,548.4932140961309,1 45100U 20006BJ  25317.66975549 -.00001988  00000+0 -11467-3 0  9996,2 45100  53.0563  47.4495 0001750  96.5240 263.5949 15.06377256319537
STARLINK-1143,45179,53.0493,0.0009551,15.42392446,432.53954965199864,445.56174149257095,1 45179U 20012B   25317.61384914  .00062943  00000+0  14307-2 0  9995,2 45179  53.0493 168.1435 0009551  98.8803 261.3284 15.42392446317902
STARLINK-1202,45183,53.0518,0.0003021,15.06394719,545.1355908009509,549.3198961789676,1 45183U 20012F   25317.40065519 -.00008550  00000+0 -55579-3 0  9997,2 45183  53.0518 208.6611 0003021  76.7301 283.4025 15.06394719317313
STARLINK-1216,45185,53.0529,0.000128,15.06370521,546.4154521206638,548.1883644811887,1 45185U 20012H   25317.72501314  .00005206  00000+0  36841-3 0  9996,2 45185  53.0529 207.2024 0001280  80.3355 279.7779 15.06370521317303
STARLINK-1225,45187,53.0526,0.0002938,15.06393335,545.1973118707838,549.2666586865325,1 45187U 20012K   25317.41171499  .00002188  00000+0  16577-3 0  9991,2 45187  53.0526 208.6101 0002938  78.2034 281.9284 15.06393335317308
STARLINK-1230,45189,53.0536,0.000149,15.06418431,546.1232016353206,548.1869386722265,1 45189U 20012M   25317.15000488  .00023940  00000+0  16198-2 0  9990,2 45189  53.0536 209.7884 0001490  74.3650 285.7504 15.06418431314493
STARLINK-1234,45190,53.0523,0.0004308,15.37943768,449.2481399252183,455.13315022421466,1 45190U 20012N   25317.54913006  .00046589  00000+0  12328-2 0  9999,2 45190  53.0523 162.1887 0004308 130.0645 230.0736 15.37943768317876
STARLINK-1269,45197,53.0523,0.000182,15.06373915,546.0310778719395,548.5519338480726,1 45197U 20012V   25317.69186723  .00015228  00000+0  10397-2 0  9990,2 45197  53.0523 207.3555 0001820 101.6027 258.5166 15.06373915317320
STARLINK-1154,45198,53.0552,9.52e-05,15.06424803,546.4762554126428,547.7948273045176,1 45198U 20012W   25317.68260703 -.00032015  00000+0 -21386-2 0  9996,2 45198  53.0552 187.3935 0000952  92.3558 267.7540 15.06424803317570
STARLINK-1199,45201,53.054,0.000153,15.06381569,546.2084599025129,548.3276338468568,1 45201U 20012Z   25317.62735523 -.00002369  00000+0 -14026-3 0  9995,2 45201  53.0540 187.6453 0001530  89.8178 270.2986 15.06381569317622
STARLINK-1209,45206,53.0526,0.0002883,15.31865838,468.2712966480249,472.22007410441256,1 45206U 20012AE  25317.85516376  .00104234  00000+0  33065-2 0  9993,2 45206  53.0526 161.9241 0002883 136.4788 223.6440 15.31865838317057
STARLINK-1210,45207,53.023,0.0009565,15.6022095,380.5474380078622,393.4891801140957,1 45207U 20012AF  25317.91670139  .00054632  00000+0  65857-3 0  9990,2 45207  53.0230 121.2007 0009565 107.6215 295.8108 15.60220950  5977
STARLINK-1231,45212,53.0521,0.0007476,15.13240049,521.1650213544945,531.4885756259973,1 45212U 20012AL  25317.05935851  .00054249  00000+0  30095-2 0  9995,2 45212  53.0521 187.9725 0007476  87.1716 273.0131 15.13240049317529
STARLINK-1271,45217,53.0506,0.0003135,15.06387687,545.078187163208,549.4204043706541,1 45217U 20012AR  25317.61260514  .00005557  00000+0  39177-3 0  9998,2 45217  53.0506 187.7103 0003135  78.1612 281.9728 15.06387687317621
STARLINK-1191,45222,53.0582,8.92e-05,15.0639291,546.6155448226828,547.851030882035,1 45222U 20012AW  25317.62183164  .00002622  00000+0  19491-3 0  9997,2 45222  53.0582 167.6684 0000892  78.9944 281.1145 15.06392910317906
STARLINK-1212,45223,53.05,0.0002547,15.06396459,545.4585215726547,548.9862996564216,1 45223U 20012AX  25317.57398473 -.00002105  00000+0 -12243-3 0  9999,2 45223  53.0500 168.5372 0002547  79.9621 280.1655 15.06396459317898
STARLINK-1215,45225,53.0529,0.000145,15.06415562,546.1596944350695,548.1680316853572,1 45225U 20012AZ  25317.72870065  .00010560  00000+0  72645-3 0  9994,2 45225  53.0529 167.1869 0001450  84.5848 275.5307 15.06415562317879
STARLINK-1221,45227,53.0675,0.0003449,15.37287968,451.77658136323225,456.4894812308212,1 45227U 20012BB  25317.39009356  .00035129  00000+0  95362-3 0  9995,2 45227  53.0675  98.7801 0003449  24.5328 335.5838 15.37287968318794
STARLINK-1222,45228,53.046,0.0002437,15.06387316,545.5627159268379,548.9381497616059,1 45228U 20012BC  25317.69554917 -.00002791  00000+0 -16855-3 0  9998,2 45228  53.0460 167.3412 0002437  79.2633 280.8630 15.06387316317807
STARLINK-1226,45229,53.0524,0.0001375,15.06413946,546.2165862369484,548.1210453362892,1 45229U 20012BD  25317.32694073  .00002787  00000+0  20583-3 0  9993,2 45229  53.0524 168.9907 0001375  84.6689 275.4457 15.06413946317756
STARLINK-1227,45230,53.0548,0.000124,15.06424144,546.2788269984094,547.9962950895488,1 45230U 20012BE  25317.58863650  .00000353  00000+0  42540-4 0  9997,2 45230  53.0548 167.8148 0001240  86.7836 273.3295 15.06424144317914
STARLINK-1246,45235,53.054,0.0001412,15.06358297,546.3614973115764,548.317251839756,1 45235U 20012BK  25317.73608686 -.00014963  00000+0 -98883-3 0  9999,2 45235  53.0540 207.1540 0001412  86.1973 273.9178 15.06358297317384
STARLINK-1270,45237,53.0501,0.0001246,15.06407144,546.3267669915613,548.0525583959043,1 45237U 20012BM  25317.00995309  .00000785  00000+0  71549-4 0  9998,2 45237  53.0501 170.4155 0001246  81.5711 278.5419 15.06407144317814
STARLINK-1279,45360,53.0526,0.0006353,15.36554256,451.9658965072904,460.64974209469347,1 45360U 20019A   25317.91670139  .00084818  00000+0  23262-2 0  9999,2 45360  53.0526 291.0491 0006353  52.9444 244.6061 15.36554256  5811
STARLINK-1301,45361,53.0516,0.0005685,15.3902672,445.10489610380046,452.8673350862309,1 45361U 20019B   25317.91670139  .00096647  00000+0  24415-2 0  9994,2 45361  53.0516 300.5359 0005685  45.8744 217.3978 15.39026720  5829
STARLINK-1306,45362,53.0439,0.0006403,15.74609933,341.43609216805635,350.0466908362132,1 45362U 20019C   25317.91670139  .00103906  00000+0  69155-3 0  9993,2 45362  53.0439 287.3938 0006403  13.1999 204.1096 15.74609933  6028
STARLINK-1262,45366,53.0546,0.000127,15.06366162,546.4357360379781,548.1948009141706,1 45366U 20019G   25317.45225742 -.00022614  00000+0 -15055-2 0  9999,2 45366  53.0546 328.4250 0001270  83.5699 276.5434 15.06366162312219
STARLINK-1273,45367,53.0544,0.0001232,15.06441862,546.2300727725933,547.9364470446353,1 45367U 20019H   25317.34168773  .00017190  00000+0  11688-2 0  9997,2 45367  53.0544 328.9242 0001232  93.6153 266.4977 15.06441862312197
STARLINK-1276,45368,53.0551,0.0001282,15.06370621,546.4137605765982,548.1894430341008,1 45368U 20019J   25317.44488796 -.00013501  00000+0 -88993-3 0  9997,2 45368  53.0551 328.4627 0001282  94.0511 266.0625 15.06370621312219
STARLINK-1277,45369,53.0565,0.0001418,15.06412347,546.1917073604527,548.1557254796298,1 45369U 20019K   25317.30489068  .00003697  00000+0  26687-3 0  9991,2 45369  53.0565 329.7172 0001418 106.6867 253.4278 15.06412347312181
STARLINK-1281,45370,53.0552,0.0001327,15.06364103,546.4025709045054,548.2405876114408,1 45370U 20019L   25317.43383267 -.00014444  00000+0 -95366-3 0  9995,2 45370  53.0552 328.5128 0001327  91.3733 268.7408 15.06364103312212
STARLINK-1300,45374,53.0551,0.0001357,15.06369359,546.3656872388656,548.2452523251632,1 45374U 20019Q   25317.45594251 -.00021349  00000+0 -14198-2 0  9993,2 45374  53.0551 328.4106 0001357  84.2958 275.8186 15.06369359312213
STARLINK-1302,45375,53.0555,0.0001689,15.06378755,546.1069691995654,548.4463739378225,1 45375U 20019R   25317.47068076 -.00005257  00000+0 -33448-3 0  9997,2 45375  53.0555 328.3480 0001689 108.5201 251.5972 15.06378755312215
STARLINK-1304,45376,53.0549,0.0001142,15.06416135,546.3712377705233,547.9529760865453,1 45376U 20019S   25317.29006483  .00004700  00000+0  33405-3 0  9995,2 45376  53.0549 329.1552 0001142 104.7619 255.3496 15.06416135312187
STARLINK-1305,45377,53.0537,0.0004016,15.33102036,463.81495243498557,469.3126161049104,1 45377U 20019T   25317.91670139  .00090492  00000+0  27678-2 0  9997,2 45377  53.0537 321.6134 0004016  44.1068 241.7604 15.33102036  5817
